STARLINK-31455          
1 59309U 24056P   26068.50955281  .00001716  00000+0  71858-4 0  9997
2 59309  43.0020 228.5385 0001321 268.2545  91.8155 15.27582857111168
FLOCK 4G-1              
1 62666U 25009BK  26068.75951132  .00013534  00000+0  50654-3 0  9995
2 62666  97.4059 151.3158 0003180 323.1401  36.9619 15.27421081 63725
